{"type": "FeatureCollection", "features": [ {"type": "Feature", "properties": {"norad_id": 29963, "name": "FENGYUN 1C DEB", "group": "fengyun-1c-debris", "lat": -20.747940569612574, "lon": -130.28483758618898, "alt_km": 764.9180425510694, "timestamp": "2025-12-08T10:52:03.220361+00:00", "meta": {"OBJECT_NAME": "FENGYUN 1C DEB", "OBJECT_ID": "1999-025KM", "EPOCH": "2025-12-07T23:15:36.222336", "MEAN_MOTION": 14.29433175, "ECCENTRICITY": 0.00518328, "INCLINATION": 98.9982, "RA_OF_ASC_NODE": 225.7746, "ARG_OF_PERICENTER": 316.0667, "MEAN_ANOMALY": 55.3627, "EPHEMERIS_TYPE": 0, "CLASSIFICATION_TYPE": "U", "NORAD_CAT_ID": 29963, "ELEMENT_SET_NO": 999, "REV_AT_EPOCH": 98075, "BSTAR": 0.0010828089, "MEAN_MOTION_DOT": 2.756e-05, "MEAN_MOTION_DDOT": 0}, "tle": {"line1": "1 29963U 99025KM  25341.96916924  .00002756  00000+0  10828-2 0  9995", "line2": "2 29963  98.9982 225.7746 0051832 316.0667  55.3627 14.29433175980753"}}, "geometry": {"type": "Point", "coordinates": [-130.28483758618898, -20.747940569612574]}}, {"type": "Feature", "properties": {"norad_id": 29964, "name": "FENGYUN 1C DEB", "group": "fengyun-1c-debris", "lat": -73.2394726552712, "lon": -145.43209715368457, "alt_km": 796.6343265423466, "timestamp": "2025-12-08T10:52:03.220372+00:00", "meta": {"OBJECT_NAME": "FENGYUN 1C DEB", "OBJECT_ID": "1999-025KN", "EPOCH": "2025-12-07T19:48:46.249920", "MEAN_MOTION": 14.0272232, "ECCENTRICITY": 0.01309914, "INCLINATION": 98.3708, "RA_OF_ASC_NODE": 184.723, "ARG_OF_PERICENTER": 283.4916, "MEAN_ANOMALY": 75.1684, "EPHEMERIS_TYPE": 0, "CLASSIFICATION_TYPE": "U", "NORAD_CAT_ID": 29964, "ELEMENT_SET_NO": 999, "REV_AT_EPOCH": 96248, "BSTAR": 0.0015977201, "MEAN_MOTION_DOT": 2.622e-05, "MEAN_MOTION_DDOT": 0}, "tle": {"line1": "1 29964U 99025KN  25341.82553530  .00002622  00000+0  15977-2 0  9993", "line2": "2 29964  98.3708 184.7230 0130991 283.4916  75.1684 14.02722320962481"}}, "geometry": {"type": "Point", "coordinates": [-145.43209715368457, -73.2394726552712]}}, {"type": "Feature", "properties": {"norad_id": 29965, "name": "FENGYUN 1C DEB", "group": "fengyun-1c-debris", "lat": 35.98361867871298, "lon": 163.77898725278055, "alt_km": 857.4649246079907, "timestamp": "2025-12-08T10:52:03.220382+00:00", "meta": {"OBJECT_NAME": "FENGYUN 1C DEB", "OBJECT_ID": "1999-025KP", "EPOCH": "2025-12-07T22:29:16.060416", "MEAN_MOTION": 13.95771168, "ECCENTRICITY": 0.01462162, "INCLINATION": 98.9623, "RA_OF_ASC_NODE": 336.6974, "ARG_OF_PERICENTER": 81.1197, "MEAN_ANOMALY": 350.3155, "EPHEMERIS_TYPE": 0, "CLASSIFICATION_TYPE": "U", "NORAD_CAT_ID": 29965, "ELEMENT_SET_NO": 999, "REV_AT_EPOCH": 96209, "BSTAR": 0.00041456608, "MEAN_MOTION_DOT": 5.77e-06, "MEAN_MOTION_DDOT": 0}, "tle": {"line1": "1 29965U 99025KP  25341.93699144  .00000577  00000+0  41457-3 0  9998", "line2": "2 29965  98.9623 336.6974 0146216  81.1197 350.3155 13.95771168962091"}}, "geometry": {"type": "Point", "coordinates": [163.77898725278055, 35.98361867871298]}}, {"type": "Feature", "properties": {"norad_id": 29966, "name": "FENGYUN 1C DEB", "group": "fengyun-1c-debris", "lat": -62.07180324900307, "lon": -9.335999237430693, "alt_km": 824.6513201354437, "timestamp": "2025-12-08T10:52:03.220393+00:00", "meta": {"OBJECT_NAME": "FENGYUN 1C DEB", "OBJECT_ID": "1999-025KQ", "EPOCH": "2025-12-07T20:15:09.034848", "MEAN_MOTION": 14.25739392, "ECCENTRICITY": 0.00397933, "INCLINATION": 99.4918, "RA_OF_ASC_NODE": 188.4025, "ARG_OF_PERICENTER": 359.2738, "MEAN_ANOMALY": 0.8375, "EPHEMERIS_TYPE": 0, "CLASSIFICATION_TYPE": "U", "NORAD_CAT_ID": 29966, "ELEMENT_SET_NO": 999, "REV_AT_EPOCH": 97973, "BSTAR": 0.0006638154, "MEAN_MOTION_DOT": 1.538e-05, "MEAN_MOTION_DDOT": 0}, "tle": {"line1": "1 29966U 99025KQ  25341.84385457  .00001538  00000+0  66382-3 0  9990", "line2": "2 29966  99.4918 188.4025 0039793 359.2738   0.8375 14.25739392979733"}}, "geometry": {"type": "Point", "coordinates": [-9.335999237430693, -62.07180324900307]}}, {"type": "Feature", "properties": {"norad_id": 29967, "name": "FENGYUN 1C DEB", "group": "fengyun-1c-debris", "lat": 80.68379883189871, "lon": -48.89682034458473, "alt_km": 851.8425184505677, "timestamp": "2025-12-08T10:52:03.220404+00:00", "meta": {"OBJECT_NAME": "FENGYUN 1C DEB", "OBJECT_ID": "1999-025KR", "EPOCH": "2025-12-07T16:35:37.538880", "MEAN_MOTION": 14.2354236, "ECCENTRICITY": 0.00756516, "INCLINATION": 98.8659, "RA_OF_ASC_NODE": 58.2588, "ARG_OF_PERICENTER": 307.2531, "MEAN_ANOMALY": 205.2875, "EPHEMERIS_TYPE": 0, "CLASSIFICATION_TYPE": "U", "NORAD_CAT_ID": 29967, "ELEMENT_SET_NO": 999, "REV_AT_EPOCH": 97150, "BSTAR": 0.0024744814, "MEAN_MOTION_DOT": 5.758e-05, "MEAN_MOTION_DDOT": 0}, "tle": {"line1": "1 29967U 99025KR  25341.69140670  .00005758  00000+0  24745-2 0  9994", "line2": "2 29967  98.8659  58.2588 0075651 307.2531 205.2875 14.23542360971502"}}, "geometry": {"type": "Point", "coordinates": [-48.89682034458473, 80.68379883189871]}}, {"type": "Feature", "properties": {"norad_id": 29968, "name": "FENGYUN 1C DEB", "group": "fengyun-1c-debris", "lat": -79.70561746454564, "lon": 93.74148360310649, "alt_km": 889.3486843799683, "timestamp": "2025-12-08T10:52:03.220416+00:00", "meta": {"OBJECT_NAME": "FENGYUN 1C DEB", "OBJECT_ID": "1999-025KS", "EPOCH": "2025-12-07T23:40:48.855648", "MEAN_MOTION": 14.07250995, "ECCENTRICITY": 0.00903131, "INCLINATION": 98.8042, "RA_OF_ASC_NODE": 331.8576, "ARG_OF_PERICENTER": 8.1229, "MEAN_ANOMALY": 57.3362, "EPHEMERIS_TYPE": 0, "CLASSIFICATION_TYPE": "U", "NORAD_CAT_ID": 29968, "ELEMENT_SET_NO": 999, "REV_AT_EPOCH": 96982, "BSTAR": 0.00041218726, "MEAN_MOTION_DOT": 6.74e-06, "MEAN_MOTION_DDOT": 0}, "tle": {"line1": "1 29968U 99025KS  25341.98667657  .00000674  00000+0  41219-3 0  9994", "line2": "2 29968  98.8042 331.8576 0090313   8.1229  57.3362 14.07250995969820"}}, "geometry": {"type": "Point", "coordinates": [93.74148360310649, -79.70561746454564]}}, {"type": "Feature", "properties": {"norad_id": 29969, "name": "FENGYUN 1C DEB", "group": "fengyun-1c-debris", "lat": -74.3831159458482, "lon": 100.23405678007246, "alt_km": 811.6493477931681, "timestamp": "2025-12-08T10:52:03.220427+00:00", "meta": {"OBJECT_NAME": "FENGYUN 1C DEB", "OBJECT_ID": "1999-025KT", "EPOCH": "2025-12-07T19:02:46.769568", "MEAN_MOTION": 14.33151355, "ECCENTRICITY": 0.0042042, "INCLINATION": 98.7715, "RA_OF_ASC_NODE": 66.0372, "ARG_OF_PERICENTER": 65.4366, "MEAN_ANOMALY": 58.6578, "EPHEMERIS_TYPE": 0, "CLASSIFICATION_TYPE": "U", "NORAD_CAT_ID": 29969, "ELEMENT_SET_NO": 999, "REV_AT_EPOCH": 97591, "BSTAR": 0.002949034, "MEAN_MOTION_DOT": 8.139e-05, "MEAN_MOTION_DDOT": 0}, "tle": {"line1": "1 29969U 99025KT  25341.79359687  .00008139  00000+0  29490-2 0  9995", "line2": "2 29969  98.7715  66.0372 0042042  65.4366  58.6578 14.33151355975911"}}, "geometry": {"type": "Point", "coordinates": [100.23405678007246, -74.3831159458482]}}, {"type": "Feature", "properties": {"norad_id": 29970, "name": "FENGYUN 1C DEB", "group": "fengyun-1c-debris", "lat": -35.8947806139538, "lon": -82.94226626789263, "alt_km": 786.79960908669, "timestamp": "2025-12-08T10:52:03.220437+00:00", "meta": {"OBJECT_NAME": "FENGYUN 1C DEB", "OBJECT_ID": "1999-025KU", "EPOCH": "2025-12-07T18:39:45.413280", "MEAN_MOTION": 14.43929508, "ECCENTRICITY": 0.00905099, "INCLINATION": 98.808, "RA_OF_ASC_NODE": 269.9159, "ARG_OF_PERICENTER": 202.4222, "MEAN_ANOMALY": 212.609, "EPHEMERIS_TYPE": 0, "CLASSIFICATION_TYPE": "U", "NORAD_CAT_ID": 29970, "ELEMENT_SET_NO": 999, "REV_AT_EPOCH": 99049, "BSTAR": 0.00081729342, "MEAN_MOTION_DOT": 2.882e-05, "MEAN_MOTION_DDOT": 0}, "tle": {"line1": "1 29970U 99025KU  25341.77760895  .00002882  00000+0  81729-3 0  9995", "line2": "2 29970  98.8080 269.9159 0090509 202.4222 212.6090 14.43929508990496"}}, "geometry": {"type": "Point", "coordinates": [-82.94226626789263, -35.8947806139538]}}, {"type": "Feature", "properties": {"norad_id": 29971, "name": "FENGYUN 1C DEB", "group": "fengyun-1c-debris", "lat": -21.07958600759402, "lon": 25.69202385951269, "alt_km": 852.702504259245, "timestamp": "2025-12-08T10:52:03.220448+00:00", "meta": {"OBJECT_NAME": "FENGYUN 1C DEB", "OBJECT_ID": "1999-025KV", "EPOCH": "2025-12-07T01:14:31.440192", "MEAN_MOTION": 14.1815082, "ECCENTRICITY": 0.00236379, "INCLINATION": 98.6835, "RA_OF_ASC_NODE": 20.9445, "ARG_OF_PERICENTER": 183.7937, "MEAN_ANOMALY": 205.9886, "EPHEMERIS_TYPE": 0, "CLASSIFICATION_TYPE": "U", "NORAD_CAT_ID": 29971, "ELEMENT_SET_NO": 999, "REV_AT_EPOCH": 97259, "BSTAR": 0.0014346423, "MEAN_MOTION_DOT": 2.912e-05, "MEAN_MOTION_DDOT": 0}, "tle": {"line1": "1 29971U 99025KV  25341.05175278  .00002912  00000+0  14346-2 0  9996", "line2": "2 29971  98.6835  20.9445 0023637 183.7937 205.9886 14.18150820972592"}}, "geometry": {"type": "Point", "coordinates": [25.69202385951269, -21.07958600759402]}}, {"type": "Feature", "properties": {"norad_id": 29972, "name": "FENGYUN 1C DEB", "group": "fengyun-1c-debris", "lat": 58.23700080155254, "lon": -171.11681097448235, "alt_km": 671.1489801184853, "timestamp": "2025-12-08T10:52:03.220458+00:00", "meta": {"OBJECT_NAME": "FENGYUN 1C DEB", "OBJECT_ID": "1999-025KW", "EPOCH": "2025-12-07T15:14:30.015168", "MEAN_MOTION": 14.66242007, "ECCENTRICITY": 0.00652768, "INCLINATION": 98.9211, "RA_OF_ASC_NODE": 353.2982, "ARG_OF_PERICENTER": 28.0124, "MEAN_ANOMALY": 97.8445, "EPHEMERIS_TYPE": 0, "CLASSIFICATION_TYPE": "U", "NORAD_CAT_ID": 29972, "ELEMENT_SET_NO": 999, "REV_AT_EPOCH": 99411, "BSTAR": 0.0020836952, "MEAN_MOTION_DOT": 0.00011807, "MEAN_MOTION_DDOT": 0}, "tle": {"line1": "1 29972U 99025KW  25341.63506962  .00011807  00000+0  20837-2 0  9994", "line2": "2 29972  98.9211 353.2982 0065276  28.0124  97.8445 14.66242007994119"}}, "geometry": {"type": "Point", "coordinates": [-171.11681097448235, 58.23700080155254]}}]}